RCM-3                   
1 44323U 19033B   26202.28013534 -.00000143  00000+0 -84954-5 0  9994
2 44323  97.7600 209.3401 0001540  93.0140 267.1256 14.92590111387182
RCM-2                   
1 44324U 19033C   26202.30234720  .00000722  00000+0  75586-4 0  9991
2 44324  97.7598 209.3123 0001508  92.1146 268.0245 14.92589542387173
