{"fetched_at":"2026-07-21T17:53:46.281Z","source":"https://celestrak.org/NORAD/elements/gp.php?NAME=RCM&FORMAT=JSON","constellation":"rcm","records":[{"OBJECT_NAME":"RCM-3","OBJECT_ID":"2019-033B","EPOCH":"2026-07-21T06:43:23.693376","CLASSIFICATION_TYPE":"U","MEAN_MOTION":14.92590111,"ECCENTRICITY":0.00015407,"INCLINATION":97.76,"RA_OF_ASC_NODE":209.3401,"ARG_OF_PERICENTER":93.014,"MEAN_ANOMALY":267.1256,"EPHEMERIS_TYPE":0,"NORAD_CAT_ID":44323,"ELEMENT_SET_NO":999,"REV_AT_EPOCH":38718,"BSTAR":-0.000008495361,"MEAN_MOTION_DOT":-0.00000143,"MEAN_MOTION_DDOT":0},{"OBJECT_NAME":"RCM-2","OBJECT_ID":"2019-033C","EPOCH":"2026-07-21T07:15:22.798080","CLASSIFICATION_TYPE":"U","MEAN_MOTION":14.92589542,"ECCENTRICITY":0.00015085,"INCLINATION":97.7598,"RA_OF_ASC_NODE":209.3123,"ARG_OF_PERICENTER":92.1146,"MEAN_ANOMALY":268.0245,"EPHEMERIS_TYPE":0,"NORAD_CAT_ID":44324,"ELEMENT_SET_NO":999,"REV_AT_EPOCH":38717,"BSTAR":0.000075585514,"MEAN_MOTION_DOT":0.00000722,"MEAN_MOTION_DDOT":0}]}
